{
  "type": "FeatureCollection",
  "features": [
    {
      "type": "Feature",
      "properties": {
        "norad_id": 41556,
        "name": "ZIYUAN 3-2 (ZY 3-2)",
        "group": "resource",
        "lat": 74.12902138478111,
        "lon": -94.33278147369649,
        "alt_km": 502.1598179008188,
        "timestamp": "2025-12-10T05:46:13.454668+00:00",
        "meta_object_name": "ZIYUAN 3-2 (ZY 3-2)",
        "meta_object_id": "2016-033A",
        "meta_epoch": "2025-12-09T19:50:35.086272",
        "meta_mean_motion": 15.21435294,
        "meta_eccentricity": 0.001242,
        "meta_inclination": 97.4041,
        "meta_ra_of_asc_node": 58.0415,
        "meta_arg_of_pericenter": 260.4121,
        "meta_mean_anomaly": 99.5712,
        "meta_ephemeris_type": 0,
        "meta_classification_type": "U",
        "meta_norad_cat_id": 41556,
        "meta_element_set_no": 999,
        "meta_rev_at_epoch": 52919,
        "meta_bstar": 0.00051351,
        "meta_mean_motion_dot": 0.00011495,
        "meta_mean_motion_ddot": 0,
        "tle_line1": "1 41556U 16033A   25343.82679498  .00011495  00000+0  51351-3 0  9991",
        "tle_line2": "2 41556  97.4041  58.0415 0012420 260.4121  99.5712 15.21435294529191"
      },
      "geometry": {
        "type": "Point",
        "coordinates": [
          -94.33278147369649,
          74.12902138478111
        ]
      }
    },
    {
      "type": "Feature",
      "properties": {
        "norad_id": 41599,
        "name": "CARTOSAT-2C",
        "group": "resource",
        "lat": 66.54296925711273,
        "lon": 23.89874585873682,
        "alt_km": 494.1479612674302,
        "timestamp": "2025-12-10T05:46:13.454678+00:00",
        "meta_object_name": "CARTOSAT-2C",
        "meta_object_id": "2016-040A",
        "meta_epoch": "2025-12-09T19:59:22.382880",
        "meta_mean_motion": 15.19246808,
        "meta_eccentricity": 0.0010905,
        "meta_inclination": 97.4765,
        "meta_ra_of_asc_node": 41.1123,
        "meta_arg_of_pericenter": 73.3414,
        "meta_mean_anomaly": 286.9017,
        "meta_ephemeris_type": 0,
        "meta_classification_type": "U",
        "meta_norad_cat_id": 41599,
        "meta_element_set_no": 999,
        "meta_rev_at_epoch": 52496,
        "meta_bstar": 0.00026506,
        "meta_mean_motion_dot": 5.526e-05,
        "meta_mean_motion_ddot": 0,
        "tle_line1": "1 41599U 16040A   25343.83289795  .00005526  00000+0  26506-3 0  9996",
        "tle_line2": "2 41599  97.4765  41.1123 0010905  73.3414 286.9017 15.19246808524960"
      },
      "geometry": {
        "type": "Point",
        "coordinates": [
          23.89874585873682,
          66.54296925711273
        ]
      }
    },
    {
      "type": "Feature",
      "properties": {
        "norad_id": 41601,
        "name": "SKYSAT-C1",
        "group": "resource",
        "lat": 3.6005499427142076,
        "lon": 20.95292136286107,
        "alt_km": 469.1619707259915,
        "timestamp": "2025-12-10T05:46:13.454689+00:00",
        "meta_object_name": "SKYSAT-C1",
        "meta_object_id": "2016-040C",
        "meta_epoch": "2025-12-09T09:22:57.016416",
        "meta_mean_motion": 15.32493174,
        "meta_eccentricity": 0.0002745,
        "meta_inclination": 96.9826,
        "meta_ra_of_asc_node": 20.5932,
        "meta_arg_of_pericenter": 25.1532,
        "meta_mean_anomaly": 334.9844,
        "meta_ephemeris_type": 0,
        "meta_classification_type": "U",
        "meta_norad_cat_id": 41601,
        "meta_element_set_no": 999,
        "meta_rev_at_epoch": 52876,
        "meta_bstar": 0.00040404839,
        "meta_mean_motion_dot": 0.00012613,
        "meta_mean_motion_ddot": 0,
        "tle_line1": "1 41601U 16040C   25343.39093769  .00012613  00000+0  40405-3 0  9994",
        "tle_line2": "2 41601  96.9826  20.5932 0002745  25.1532 334.9844 15.32493174528763"
      },
      "geometry": {
        "type": "Point",
        "coordinates": [
          20.95292136286107,
          3.6005499427142076
        ]
      }
    },
    {
      "type": "Feature",
      "properties": {
        "norad_id": 41603,
        "name": "LAPAN-A3",
        "group": "resource",
        "lat": 23.056952239942884,
        "lon": 164.94728102112043,
        "alt_km": 477.76001866153183,
        "timestamp": "2025-12-10T05:46:13.454699+00:00",
        "meta_object_name": "LAPAN-A3",
        "meta_object_id": "2016-040E",
        "meta_epoch": "2025-12-09T21:14:53.228256",
        "meta_mean_motion": 15.31516375,
        "meta_eccentricity": 0.0009993,
        "meta_inclination": 97.1432,
        "meta_ra_of_asc_node": 341.5451,
        "meta_arg_of_pericenter": 344.9404,
        "meta_mean_anomaly": 15.1539,
        "meta_ephemeris_type": 0,
        "meta_classification_type": "U",
        "meta_norad_cat_id": 41603,
        "meta_element_set_no": 999,
        "meta_rev_at_epoch": 52582,
        "meta_bstar": 0.00020932,
        "meta_mean_motion_dot": 6.305e-05,
        "meta_mean_motion_ddot": 0,
        "tle_line1": "1 41603U 16040E   25343.88533829  .00006305  00000+0  20932-3 0  9990",
        "tle_line2": "2 41603  97.1432 341.5451 0009993 344.9404  15.1539 15.31516375525826"
      },
      "geometry": {
        "type": "Point",
        "coordinates": [
          164.94728102112043,
          23.056952239942884
        ]
      }
    },
    {
      "type": "Feature",
      "properties": {
        "norad_id": 41604,
        "name": "BIROS",
        "group": "resource",
        "lat": -2.0484276708550047,
        "lon": -164.68060500483404,
        "alt_km": 307.8068596497824,
        "timestamp": "2025-12-10T05:46:13.454709+00:00",
        "meta_object_name": "BIROS",
        "meta_object_id": "2016-040F",
        "meta_epoch": "2025-12-09T19:56:08.052864",
        "meta_mean_motion": 15.88407667,
        "meta_eccentricity": 0.0003225,
        "meta_inclination": 97.07,
        "meta_ra_of_asc_node": 15.1481,
        "meta_arg_of_pericenter": 155.5265,
        "meta_mean_anomaly": 204.6161,
        "meta_ephemeris_type": 0,
        "meta_classification_type": "U",
        "meta_norad_cat_id": 41604,
        "meta_element_set_no": 999,
        "meta_rev_at_epoch": 52826,
        "meta_bstar": 0.00071144,
        "meta_mean_motion_dot": 0.00199717,
        "meta_mean_motion_ddot": 0,
        "tle_line1": "1 41604U 16040F   25343.83064876  .00199717  00000+0  71144-3 0  9998",
        "tle_line2": "2 41604  97.0700  15.1481 0003225 155.5265 204.6161 15.88407667528266"
      },
      "geometry": {
        "type": "Point",
        "coordinates": [
          -164.68060500483404,
          -2.0484276708550047
        ]
      }
    },
    {
      "type": "Feature",
      "properties": {
        "norad_id": 41727,
        "name": "GAOFEN-3",
        "group": "resource",
        "lat": 15.863910999682775,
        "lon": -12.543380921293176,
        "alt_km": 751.1594881185174,
        "timestamp": "2025-12-10T05:46:13.454720+00:00",
        "meta_object_name": "GAOFEN-3",
        "meta_object_id": "2016-049A",
        "meta_epoch": "2025-12-09T21:22:15.154752",
        "meta_mean_motion": 14.42211814,
        "meta_eccentricity": 0.0001497,
        "meta_inclination": 98.4038,
        "meta_ra_of_asc_node": 349.5197,
        "meta_arg_of_pericenter": 64.8231,
        "meta_mean_anomaly": 295.3114,
        "meta_ephemeris_type": 0,
        "meta_classification_type": "U",
        "meta_norad_cat_id": 41727,
        "meta_element_set_no": 999,
        "meta_rev_at_epoch": 49136,
        "meta_bstar": -6.8287e-06,
        "meta_mean_motion_dot": -6.6e-07,
        "meta_mean_motion_ddot": 0,
        "tle_line1": "1 41727U 16049A   25343.89045318 -.00000066  00000+0 -68287-5 0  9995",
        "tle_line2": "2 41727  98.4038 349.5197 0001497  64.8231 295.3114 14.42211814491364"
      },
      "geometry": {
        "type": "Point",
        "coordinates": [
          -12.543380921293176,
          15.863910999682775
        ]
      }
    },
    {
      "type": "Feature",
      "properties": {
        "norad_id": 41771,
        "name": "SKYSAT-C4",
        "group": "resource",
        "lat": -32.24122536814594,
        "lon": -174.85515662053098,
        "alt_km": 445.95387915506035,
        "timestamp": "2025-12-10T05:46:13.454730+00:00",
        "meta_object_name": "SKYSAT-C4",
        "meta_object_id": "2016-058B",
        "meta_epoch": "2025-12-09T00:49:12.473760",
        "meta_mean_motion": 15.42085038,
        "meta_eccentricity": 0.00011565,
        "meta_inclination": 96.9374,
        "meta_ra_of_asc_node": 8.402,
        "meta_arg_of_pericenter": 132.7744,
        "meta_mean_anomaly": 227.3602,
        "meta_ephemeris_type": 0,
        "meta_classification_type": "U",
        "meta_norad_cat_id": 41771,
        "meta_element_set_no": 999,
        "meta_rev_at_epoch": 51610,
        "meta_bstar": 0.00040944192,
        "meta_mean_motion_dot": 0.00017439,
        "meta_mean_motion_ddot": 0,
        "tle_line1": "1 41771U 16058B   25343.03417215  .00017439  00000+0  40944-3 0  9997",
        "tle_line2": "2 41771  96.9374   8.4020 0001156 132.7744 227.3602 15.42085038516106"
      },
      "geometry": {
        "type": "Point",
        "coordinates": [
          -174.85515662053098,
          -32.24122536814594
        ]
      }
    }
  ]
}